STARLINK-31648          
1 59266U 24050N   26068.58626419 -.00000150  00000+0  70549-5 0  9998
2 59266  53.1593 181.4092 0001288  68.0542 292.0596 15.30175540110539
HERMES-3                
1 63835U 25052BR  26068.93751242  .00020316  00000+0  69958-3 0  9995
2 63835  97.3987 324.6131 0007993 112.9583 247.2502 15.30039785 54863
